OBJECT_NAME,OBJECT_ID,EPOCH,MEAN_MOTION,ECCENTRICITY,INCLINATION,RA_OF_ASC_NODE,ARG_OF_PERICENTER,MEAN_ANOMALY,EPHEMERIS_TYPE,CLASSIFICATION_TYPE,NORAD_CAT_ID,ELEMENT_SET_NO,REV_AT_EPOCH,BSTAR,MEAN_MOTION_DOT,MEAN_MOTION_DDOT
ONEWEB-0053,2020-008AC,2026-06-06T08:35:15.628992,13.10369938,.00022464,87.8832,38.4416,77.7895,282.3484,0,U,45157,999,30649,.12854917E-2,.461E-5,0
ONEWEB-0054,2020-008AD,2026-06-06T09:25:24.954816,13.10373531,.00017192,87.8847,38.4160,83.5868,276.5455,0,U,45158,999,30661,-.17137441E-2,-.586E-5,0
ONEWEB-0056,2020-008AE,2026-06-06T08:44:39.287904,13.10370580,.00018989,87.8839,38.4163,94.6815,265.4529,0,U,45159,999,30676,.71765964E-3,.263E-5,0
ONEWEB-0057,2020-008AF,2026-06-06T09:08:53.308320,13.10370352,.00022767,87.8844,38.4245,75.5982,284.5398,0,U,45160,999,30693,-.16316316E-2,-.557E-5,0
ONEWEB-0058,2020-008AG,2026-06-06T08:49:47.149248,13.10369435,.0001558,87.8836,38.4342,79.4147,280.7155,0,U,45161,999,30700,.31475903E-3,.123E-5,0
ONEWEB-0059,2020-008AH,2026-06-06T08:45:00.855936,13.10369556,.00017541,87.8835,38.4336,76.2251,283.9071,0,U,45162,999,30690,.78396799E-3,.286E-5,0
ONEWEB-0062,2020-008AJ,2026-06-06T09:18:03.128544,13.10372178,.00014604,87.8853,38.4146,83.5391,276.5903,0,U,45163,999,30677,-.18202257E-2,-.623E-5,0
ONEWEB-0065,2020-008AK,2026-06-06T10:05:53.378880,13.10374736,.00021205,87.8848,38.4168,84.6896,275.4473,0,U,45164,999,30647,.14474467E-2,.518E-5,0
ONEWEB-0066,2020-020A,2026-06-06T12:59:40.899840,13.11417110,.00017399,87.8899,23.1902,78.7155,281.4168,0,U,45424,999,30128,.13769164E-2,.501E-5,0
ONEWEB-0067,2020-020B,2026-06-06T08:24:41.941152,13.11424067,.00020209,87.8925,23.1478,83.7911,276.3447,0,U,45425,999,30131,-.133613E-2,-.461E-5,0
ONEWEB-0080,2020-020C,2026-06-06T08:23:58.780032,13.11416401,.00013603,87.8898,23.2247,89.4030,270.7254,0,U,45426,999,30128,-.16415282E-2,-.569E-5,0
ONEWEB-0090,2020-020D,2026-06-06T09:05:29.689440,13.11418624,.00016843,87.8904,23.2225,86.7719,273.3601,0,U,45427,999,30125,.1428693E-2,.519E-5,0
ONEWEB-0061,2020-020E,2026-06-06T08:01:36.478272,13.11415726,.00017381,87.8905,23.2158,82.9166,277.2159,0,U,45428,999,30120,-.72677143E-3,-.245E-5,0
ONEWEB-0081,2020-020F,2026-06-06T09:24:49.967136,13.11416530,.00018719,87.8900,23.2154,79.3658,280.7681,0,U,45429,999,30132,.12568593E-2,.458E-5,0
ONEWEB-0069,2020-020G,2026-06-06T07:37:35.910336,13.11417850,.00018147,87.8902,23.2326,80.8390,279.2943,0,U,45430,999,30124,.11068685E-2,.405E-5,0
ONEWEB-0031,2020-020H,2026-06-06T08:28:40.005120,13.11417592,.00015892,87.8895,23.2321,87.3644,272.7666,0,U,45431,999,30123,-.1361095E-2,-.47E-5,0
ONEWEB-0027,2020-020J,2026-06-06T13:06:36.232416,13.16053122,.00017644,87.9149,7.9771,99.6456,260.4874,0,U,45432,999,30495,-.21820962E-3,-.7E-6,0
ONEWEB-0064,2020-020K,2026-06-06T08:26:13.017120,13.11418898,.00016642,87.8899,23.2237,90.0387,270.0931,0,U,45433,999,30126,-.14725028E-2,-.509E-5,0
ONEWEB-0018,2020-020L,2026-06-06T12:52:21.512640,13.11418764,.00016026,87.8903,23.1865,71.5801,288.5501,0,U,45434,999,30123,.14831841E-2,.538E-5,0
ONEWEB-0083,2020-020M,2026-06-06T12:37:55.060608,13.11417396,.00016976,87.8906,23.1811,84.9364,275.1958,0,U,45435,999,30127,.81430526E-3,.301E-5,0
ONEWEB-0095,2020-020N,2026-06-06T08:45:57.730464,13.11418006,.00023856,87.8908,23.2218,99.6284,260.5114,0,U,45436,999,30125,-.33361566E-4,.1E-7,0
ONEWEB-0092,2020-020P,2026-06-06T07:43:10.993728,13.11954019,.00021063,87.8903,23.2229,86.7407,273.3962,0,U,45437,999,30136,.6640594E-3,.25E-5,0
ONEWEB-0085,2020-020Q,2026-06-06T12:37:31.410336,13.11405675,.00018565,87.8904,23.1884,84.2031,275.9309,0,U,45438,999,30127,.88544709E-2,.3151E-4,0
ONEWEB-0096,2020-020R,2026-06-06T12:40:12.955008,13.11408919,.00020926,87.8903,23.1841,77.2615,282.8747,0,U,45439,999,30126,.83071621E-2,.2957E-4,0
ONEWEB-0037,2020-020S,2026-06-06T08:04:23.387520,13.11910618,.00018621,87.8918,23.1956,85.7632,274.3709,0,U,45440,999,30127,-.88362706E-3,-.303E-5,0
ONEWEB-0042,2020-020T,2026-06-06T08:45:33.702624,13.11419120,.00018796,87.8914,23.2120,82.3049,277.8293,0,U,45441,999,30124,-.22569083E-3,-.67E-6,0
ONEWEB-0098,2020-020U,2026-06-06T08:39:39.568896,13.11417483,.00016544,87.8898,23.2231,84.6125,275.5191,0,U,45442,999,30122,-.97391877E-3,-.332E-5,0
ONEWEB-0055,2020-020V,2026-06-06T08:08:56.793408,13.11413904,.0001698,87.8904,23.2259,87.0436,273.0886,0,U,45443,999,30119,-.12182315E-2,-.419E-5,0
ONEWEB-0093,2020-020W,2026-06-06T07:40:02.677152,13.11417029,.00020943,87.8909,23.2215,71.5719,288.5636,0,U,45444,999,30125,.10718901E-2,.393E-5,0
ONEWEB-0029,2020-020X,2026-06-06T08:19:06.512160,13.11419553,.00018807,87.8902,23.2259,76.0085,284.1252,0,U,45445,999,30123,-.13742077E-2,-.474E-5,0
