ONEWEB-0053             
1 45157U 20008AC  26157.35781978  .00000461  00000+0  12855-2 0  9994
2 45157  87.8832  38.4416 0002246  77.7895 282.3484 13.10369938306499
ONEWEB-0054             
1 45158U 20008AD  26157.39264994 -.00000586  00000+0 -17137-2 0  9991
2 45158  87.8847  38.4160 0001719  83.5868 276.5455 13.10373531306612
ONEWEB-0056             
1 45159U 20008AE  26157.36434361  .00000263  00000+0  71766-3 0  9995
2 45159  87.8839  38.4163 0001898  94.6815 265.4529 13.10370580306766
ONEWEB-0057             
1 45160U 20008AF  26157.38117255 -.00000557  00000+0 -16316-2 0  9996
2 45160  87.8844  38.4245 0002276  75.5982 284.5398 13.10370352306931
ONEWEB-0058             
1 45161U 20008AG  26157.36790682  .00000123  00000+0  31476-3 0  9998
2 45161  87.8836  38.4342 0001558  79.4147 280.7155 13.10369435307007
ONEWEB-0059             
1 45162U 20008AH  26157.36459324  .00000286  00000+0  78397-3 0  9997
2 45162  87.8835  38.4336 0001754  76.2251 283.9071 13.10369556306903
ONEWEB-0062             
1 45163U 20008AJ  26157.38753621 -.00000623  00000+0 -18202-2 0  9992
2 45163  87.8853  38.4146 0001460  83.5391 276.5903 13.10372178306774
ONEWEB-0065             
1 45164U 20008AK  26157.42075670  .00000518  00000+0  14474-2 0  9997
2 45164  87.8848  38.4168 0002120  84.6896 275.4473 13.10374736306478
ONEWEB-0066             
1 45424U 20020A   26157.54144560  .00000501  00000+0  13769-2 0  9996
2 45424  87.8899  23.1902 0001739  78.7155 281.4168 13.11417110301284
ONEWEB-0067             
1 45425U 20020B   26157.35048543 -.00000461  00000+0 -13361-2 0  9995
2 45425  87.8925  23.1478 0002020  83.7911 276.3447 13.11424067301319
ONEWEB-0080             
1 45426U 20020C   26157.34998588 -.00000569  00000+0 -16415-2 0  9990
2 45426  87.8898  23.2247 0001360  89.4030 270.7254 13.11416401301288
ONEWEB-0090             
1 45427U 20020D   26157.37881585  .00000519  00000+0  14287-2 0  9990
2 45427  87.8904  23.2225 0001684  86.7719 273.3601 13.11418624301257
ONEWEB-0061             
1 45428U 20020E   26157.33444998 -.00000245  00000+0 -72677-3 0  9996
2 45428  87.8905  23.2158 0001738  82.9166 277.2159 13.11415726301204
ONEWEB-0081             
1 45429U 20020F   26157.39224499  .00000458  00000+0  12569-2 0  9992
2 45429  87.8900  23.2154 0001871  79.3658 280.7681 13.11416530301326
ONEWEB-0069             
1 45430U 20020G   26157.31777674  .00000405  00000+0  11069-2 0  9990
2 45430  87.8902  23.2326 0001814  80.8390 279.2943 13.11417850301249
ONEWEB-0031             
1 45431U 20020H   26157.35324080 -.00000470  00000+0 -13611-2 0  9993
2 45431  87.8895  23.2321 0001589  87.3644 272.7666 13.11417592301231
ONEWEB-0027             
1 45432U 20020J   26157.54625269 -.00000070  00000+0 -21821-3 0  9997
2 45432  87.9149   7.9771 0001764  99.6456 260.4874 13.16053122304952
ONEWEB-0064             
1 45433U 20020K   26157.35153955 -.00000509  00000+0 -14725-2 0  9996
2 45433  87.8899  23.2237 0001664  90.0387 270.0931 13.11418898301261
ONEWEB-0018             
1 45434U 20020L   26157.53636010  .00000538  00000+0  14832-2 0  9994
2 45434  87.8903  23.1865 0001602  71.5801 288.5501 13.11418764301237
ONEWEB-0083             
1 45435U 20020M   26157.52633172  .00000301  00000+0  81431-3 0  9998
2 45435  87.8906  23.1811 0001697  84.9364 275.1958 13.11417396301270
ONEWEB-0095             
1 45436U 20020N   26157.36525151  .00000001  00000+0 -33362-4 0  9997
2 45436  87.8908  23.2218 0002385  99.6284 260.5114 13.11418006301253
ONEWEB-0092             
1 45437U 20020P   26157.32165502  .00000250  00000+0  66406-3 0  9993
2 45437  87.8903  23.2229 0002106  86.7407 273.3962 13.11954019301360
ONEWEB-0085             
1 45438U 20020Q   26157.52605799  .00003151  00000+0  88545-2 0  9993
2 45438  87.8904  23.1884 0001856  84.2031 275.9309 13.11405675301277
ONEWEB-0096             
1 45439U 20020R   26157.52792772  .00002957  00000+0  83072-2 0  9995
2 45439  87.8903  23.1841 0002092  77.2615 282.8747 13.11408919301269
ONEWEB-0037             
1 45440U 20020S   26157.33638180 -.00000303  00000+0 -88363-3 0  9992
2 45440  87.8918  23.1956 0001862  85.7632 274.3709 13.11910618301270
ONEWEB-0042             
1 45441U 20020T   26157.36497341 -.00000067  00000+0 -22569-3 0  9991
2 45441  87.8914  23.2120 0001879  82.3049 277.8293 13.11419120301249
ONEWEB-0098             
1 45442U 20020U   26157.36087464 -.00000332  00000+0 -97392-3 0  9994
2 45442  87.8898  23.2231 0001654  84.6125 275.5191 13.11417483301225
ONEWEB-0055             
1 45443U 20020V   26157.33954622 -.00000419  00000+0 -12182-2 0  9990
2 45443  87.8904  23.2259 0001698  87.0436 273.0886 13.11413904301198
ONEWEB-0093             
1 45444U 20020W   26157.31947543  .00000393  00000+0  10719-2 0  9996
2 45444  87.8909  23.2215 0002094  71.5719 288.5636 13.11417029301252
ONEWEB-0029             
1 45445U 20020X   26157.34660315 -.00000474  00000+0 -13742-2 0  9990
2 45445  87.8902  23.2259 0001880  76.0085 284.1252 13.11419553301230
